*******************************************************************************
 Revised: September 11, 2020           Jupiter                              599
 
 PHYSICAL DATA (updated 2018-Aug-15):
  Mass x10^24 (kg)      = 1898.13+-.19    Density (g/cm^3)       =   1.326
  Equat. radius (1 bar) = 71492+-4 km     Polar radius (km)      =  66854+-10
  Vol. Mean Radius (km) = 69911+-6        Flattening             =   0.06487
  Geometric Albedo      = 0.52            Rocky core mass (Mc/M) =  0.0261
  Sid. rot. period (III)= 9h 55m 29.71 s  Sid. rot. rate (rad/s) =  0.00017585 
  Mean solar day, hrs   = ~9.9259         
  GM (km^3/s^2)         = 126686532.190   GM 1-sigma (km^3/s^2)  =  +-1.5
  Equ. grav, ge (m/s^2) = 24.79           Pol. grav, gp (m/s^2)  =  28.34
  Vis. magnitude V(1,0) = -9.40
  Vis. mag. (opposition)= -2.70           Obliquity to orbit     =  3.13 deg
  Sidereal orbit period = 11.861982204 y  Sidereal orbit period  = 4332.589 d
  Mean daily motion     = 0.0831294 deg/d Mean orbit speed, km/s = 13.0697
  Atmos. temp. (1 bar)  = 165+-5 K        Escape speed, km/s    =  59.5           
  A_roche(ice)/Rp       =  2.76           Hill's sphere rad. Rp  = 740
                                 Perihelion   Aphelion     Mean
  Solar Constant (W/m^2)         56           46           51
  Maximum Planetary IR (W/m^2)   13.7         13.4         13.6
  Minimum Planetary IR (W/m^2)   13.7         13.4         13.6
*******************************************************************************
 
 
*******************************************************************************
Ephemeris / WWW_USER Mon Oct 26 11:46:16 2020 Pasadena, USA      / Horizons
*******************************************************************************
Target body name: Jupiter (599)                   {source: jup357_merged}
Center body name: Solar System Barycenter (0)     {source: DE431mx}
Center-site name: BODY CENTER
*******************************************************************************
Start time      : A.D. 2015-Jan-01 00:00:00.0000 TDB
Stop  time      : A.D. 2020-Dec-31 00:00:00.0000 TDB
Step-size       : 1440 minutes
*******************************************************************************
Center geodetic : 0.00000000,0.00000000,0.0000000 {E-lon(deg),Lat(deg),Alt(km)}
Center cylindric: 0.00000000,0.00000000,0.0000000 {E-lon(deg),Dxy(km),Dz(km)}
Center radii    : (undefined)                                                  
Output units    : AU-D
Output type     : GEOMETRIC cartesian states
Output format   : 2 (position and velocity)
Reference frame : Ecliptic of J2000.0
*******************************************************************************
JDTDB
   X     Y     Z
   VX    VY    VZ
*******************************************************************************
$$SOE
2457567.500000000 = A.D. 2016-Jun-28 00:00:00.0000 TDB 
 X =-5.428395299126298E+00 Y = 3.293218485178830E-01 Z = 1.200312529204423E-01
 VX=-5.436684492957332E-04 VY=-7.175630815961312E-03 VZ= 4.203392215772034E-05
2457568.500000000 = A.D. 2016-Jun-29 00:00:00.0000 TDB 
 X =-5.428934787819114E+00 Y = 3.221461976304340E-01 Z = 1.200731739343487E-01
 VX=-5.351083089907097E-04 VY=-7.176474368534386E-03 VZ= 4.178206108837821E-05
2457569.500000000 = A.D. 2016-Jun-30 00:00:00.0000 TDB 
 X =-5.429464379256885E+00 Y = 3.149692581814291E-01 Z = 1.201148464631451E-01
 VX=-5.244186262467104E-04 VY=-7.176792073943323E-03 VZ= 4.158016750527598E-05
2457570.500000000 = A.D. 2016-Jul-01 00:00:00.0000 TDB 
 X =-5.429984315759905E+00 Y = 3.077919549790211E-01 Z = 1.201563017047271E-01
 VX=-5.148830306228419E-04 VY=-7.178161085553568E-03 VZ= 4.132626505029489E-05
2457571.500000000 = A.D. 2016-Jul-02 00:00:00.0000 TDB 
 X =-5.430493847153389E+00 Y = 3.006138599383501E-01 Z = 1.201975345925806E-01
 VX=-5.048454615203121E-04 VY=-7.177991621916164E-03 VZ= 4.113022899067159E-05
2457572.500000000 = A.D. 2016-Jul-03 00:00:00.0000 TDB 
 X =-5.430993766291490E+00 Y = 2.934349231763290E-01 Z = 1.202385278900094E-01
 VX=-4.942238060824809E-04 VY=-7.179610128553900E-03 VZ= 4.087757945302022E-05
2457573.500000000 = A.D. 2016-Jul-04 00:00:00.0000 TDB 
 X =-5.431482760571352E+00 Y = 2.862558123928009E-01 Z = 1.202793260838102E-01
 VX=-4.843958329856130E-04 VY=-7.178936241571731E-03 VZ= 4.069894195284848E-05
2457574.500000000 = A.D. 2016-Jul-05 00:00:00.0000 TDB 
 X =-5.431962033216238E+00 Y = 2.790764693671051E-01 Z = 1.203199132111554E-01
 VX=-4.739736904414313E-04 VY=-7.179185608507718E-03 VZ= 4.049721460054084E-05
2457575.500000000 = A.D. 2016-Jul-06 00:00:00.0000 TDB 
 X =-5.432431829686982E+00 Y = 2.718974509465889E-01 Z = 1.203603027120253E-01
 VX=-4.656240301697994E-04 VY=-7.179688358600517E-03 VZ= 4.025147195970106E-05
2457576.500000000 = A.D. 2016-Jul-07 00:00:00.0000 TDB 
 X =-5.432892061954985E+00 Y = 2.647171261680543E-01 Z = 1.204004351033472E-01
 VX=-4.549991492379645E-04 VY=-7.180279215795930E-03 VZ= 4.003561746594831E-05
2457577.500000000 = A.D. 2016-Jul-08 00:00:00.0000 TDB 
 X =-5.433342655889413E+00 Y = 2.575364371833843E-01 Z = 1.204403467110150E-01
 VX=-4.457230070786204E-04 VY=-7.181591417849392E-03 VZ= 3.977697634583371E-05
2457578.500000000 = A.D. 2016-Jul-09 00:00:00.0000 TDB 
 X =-5.433782945133668E+00 Y = 2.503547481139027E-01 Z = 1.204800244500133E-01
 VX=-4.354714840151427E-04 VY=-7.181568988183659E-03 VZ= 3.957627723804677E-05
2457579.500000000 = A.D. 2016-Jul-10 00:00:00.0000 TDB 
 X =-5.434213625965133E+00 Y = 2.431722456964191E-01 Z = 1.205194606025951E-01
 VX=-4.250724130546546E-04 VY=-7.183367822895583E-03 VZ= 3.931055937152503E-05
2457580.500000000 = A.D. 2016-Jul-11 00:00:00.0000 TDB 
 X =-5.434633230245243E+00 Y = 2.359892848286384E-01 Z = 1.205586899877789E-01
 VX=-4.148363782842253E-04 VY=-7.182696765735950E-03 VZ= 3.913380588191170E-05
2457581.500000000 = A.D. 2016-Jul-12 00:00:00.0000 TDB 
 X =-5.435042949437178E+00 Y = 2.288061412113309E-01 Z = 1.205977087233051E-01
 VX=-4.042714685800859E-04 VY=-7.183100069597638E-03 VZ= 3.892531157597801E-05
2457582.500000000 = A.D. 2016-Jul-13 00:00:00.0000 TDB 
 X =-5.435442821167388E+00 Y = 2.216233977668422E-01 Z = 1.206365345776595E-01
 VX=-3.956852661783293E-04 VY=-7.183179560450238E-03 VZ= 3.869447200438655E-05
2457583.500000000 = A.D. 2016-Jul-14 00:00:00.0000 TDB 
 X =-5.435833118800996E+00 Y = 2.144395243532449E-01 Z = 1.206751057199014E-01
 VX=-3.848804443384263E-04 VY=-7.183846230499667E-03 VZ= 3.847414118561728E-05
2457584.500000000 = A.D. 2016-Jul-15 00:00:00.0000 TDB 
 X =-5.436213515660460E+00 Y = 2.072555219320286E-01 Z = 1.207134637295143E-01
 VX=-3.756067440366704E-04 VY=-7.184746556707010E-03 VZ= 3.822566815599862E-05
2457585.500000000 = A.D. 2016-Jul-16 00:00:00.0000 TDB 
 X =-5.436583588193527E+00 Y = 2.000706742984842E-01 Z = 1.207515895363854E-01
 VX=-3.650804161111529E-04 VY=-7.184562811043425E-03 VZ= 3.803073482856263E-05
2457586.500000000 = A.D. 2016-Jul-17 00:00:00.0000 TDB 
 X =-5.436944007261880E+00 Y = 1.928854172369675E-01 Z = 1.207894845083390E-01
 VX=-3.549705121210030E-04 VY=-7.186092119456896E-03 VZ= 3.776575483488003E-05
2457587.500000000 = A.D. 2016-Jul-18 00:00:00.0000 TDB 
 X =-5.437293374745883E+00 Y = 1.856997653928555E-01 Z = 1.208271697423194E-01
 VX=-3.445058980875026E-04 VY=-7.185167695524274E-03 VZ= 3.759638614860891E-05
2457588.500000000 = A.D. 2016-Jul-19 00:00:00.0000 TDB 
 X =-5.437632918421540E+00 Y = 1.785142693740480E-01 Z = 1.208646509238464E-01
 VX=-3.341417812180815E-04 VY=-7.185464178071308E-03 VZ= 3.738480224113589E-05
2457589.500000000 = A.D. 2016-Jul-20 00:00:00.0000 TDB 
 X =-5.437962585063548E+00 Y = 1.713293793009809E-01 Z = 1.209019433778018E-01
 VX=-3.256035749943923E-04 VY=-7.185034741517765E-03 VZ= 3.716787065035834E-05
2457590.500000000 = A.D. 2016-Jul-21 00:00:00.0000 TDB 
 X =-5.438283029341584E+00 Y = 1.641436163236089E-01 Z = 1.209389815085400E-01
 VX=-3.150629350388387E-04 VY=-7.185807614539829E-03 VZ= 3.693616004095436E-05
2457591.500000000 = A.D. 2016-Jul-22 00:00:00.0000 TDB 
 X =-5.438593665009743E+00 Y = 1.569578238305472E-01 Z = 1.209758050043030E-01
 VX=-3.060728511908822E-04 VY=-7.186436696034874E-03 VZ= 3.668976333214284E-05
2457592.500000000 = A.D. 2016-Jul-23 00:00:00.0000 TDB 
 X =-5.438894276133094E+00 Y = 1.497711385306358E-01 Z = 1.210123873060760E-01
 VX=-2.955589411296989E-04 VY=-7.186425053044325E-03 VZ= 3.648595874326635E-05
2457593.500000000 = A.D. 2016-Jul-24 00:00:00.0000 TDB 
 X =-5.439185345298775E+00 Y = 1.425841163418488E-01 Z = 1.210487370004517E-01
 VX=-2.858544634330951E-04 VY=-7.187963626073142E-03 VZ= 3.621171601520079E-05
2457594.500000000 = A.D. 2016-Jul-25 00:00:00.0000 TDB 
 X =-5.439465496760233E+00 Y = 1.353964001771246E-01 Z = 1.210848610420077E-01
 VX=-2.751558698029910E-04 VY=-7.187233947575070E-03 VZ= 3.603530227847738E-05
2457595.500000000 = A.D. 2016-Jul-26 00:00:00.0000 TDB 
 X =-5.439735778648992E+00 Y = 1.282088127132832E-01 Z = 1.211207774178069E-01
 VX=-2.648775813189926E-04 VY=-7.187729149052869E-03 VZ= 3.581249183880397E-05
2457596.500000000 = A.D. 2016-Jul-27 00:00:00.0000 TDB 
 X =-5.439995960958959E+00 Y = 1.210216910585678E-01 Z = 1.211565006431450E-01
 VX=-2.560518251109018E-04 VY=-7.187096256479536E-03 VZ= 3.560424891176597E-05
2457597.500000000 = A.D. 2016-Jul-28 00:00:00.0000 TDB 
 X =-5.440246940848360E+00 Y = 1.138337836785466E-01 Z = 1.211919692406479E-01
 VX=-2.454962606738863E-04 VY=-7.188102549297123E-03 VZ= 3.536093951516414E-05
2457598.500000000 = A.D. 2016-Jul-29 00:00:00.0000 TDB 
 X =-5.440487843524383E+00 Y = 1.066458312072812E-01 Z = 1.212272227764473E-01
 VX=-2.363530758545241E-04 VY=-7.188460082615385E-03 VZ= 3.512256814473196E-05
